GOES 1 (SMS-C) [-]      
1 08366U 75100A   18114.10538251 -.00000049  00000-0  00000+0 0  9999
2 08366  11.5211 314.7694 0004308 320.3483 219.1857  1.00231916155364
GOES 2 [-]              
1 10061U 77048A   18114.37263524 -.00000313  00000-0  00000+0 0  9998
2 10061  12.8213 324.0417 0017215 335.0637 201.1448  0.99402176 93933
GOES 3 [-]              
1 10953U 78062A   18114.36268971  .00000038  00000-0  00000+0 0  9998
2 10953  12.9982 327.7166 0004174 346.4417 242.3605  0.99360356 99021
GOES 4 [-]              
1 11964U 80074A   18114.14095832 -.00000116  00000-0  00000+0 0  9995
2 11964  13.8066 331.4480 0035104  21.4211 186.8417  0.99228185 98099
GOES 5 [-]              
1 12472U 81049A   18114.36318160 -.00000026  00000-0  00000+0 0  9999
2 12472  14.0900 341.7466 0003947 300.1239 300.8189  1.00211336 93125
GOES 6 [-]              
1 14050U 83041A   18113.23294155 -.00000053  00000-0  00000+0 0  9999
2 14050  14.3686 346.6692 0001684 330.0345 222.5986  1.00221769186202
GOES 7 [-]              
1 17561U 87022A   18113.57865277 -.00000379  00000-0  00000+0 0  9999
2 17561  15.1196   2.5953 0007016 327.1730 213.4054  0.99901656 97242
GOES 8 [-]              
1 23051U 94022A   18114.45782816 -.00000013  00000-0  00000+0 0  9998
2 23051  11.7586  36.0441 0007649 278.8383 322.2319  0.98903186 94698
GOES 9 [-]              
1 23581U 95025A   18113.98883549 -.00000117  00000-0  00000+0 0  9997
2 23581  11.2527  35.6363 0002709   6.5837 186.2168  0.98801326 83350
GOES 10 [-]             
1 24786U 97019A   18113.27545143 -.00000052  00000-0  00000+0 0  9995
2 24786   9.6752  40.6247 0027208 173.7533 186.2130  0.99120694 76553
GOES 11 [-]             
1 26352U 00022A   18114.07671030 -.00000011  00000-0  00000+0 0  9993
2 26352   5.5812  71.1437 0003247 211.5582 350.4648  0.99042497 65515
GOES 12 [-]             
1 26871U 01031A   18114.55517873 -.00000318  00000-0  00000+0 0  9997
2 26871   6.8837  57.7930 0009876 250.4423 250.8683  0.99140919 61235
GOES 13 [B]             
1 29155U 06018A   18113.57919459 -.00000306  00000-0  00000+0 0  9999
2 29155   0.2783 274.5420 0007143 134.6662 310.8503  1.00280503 43670
GOES 14 [S]             
1 35491U 09033A   18113.70150657 -.00000116  00000-0  00000+0 0  9990
2 35491   0.1507 105.4806 0006262 134.3510 120.1025  1.00271610 32312
GOES 15 [+]             
1 36411U 10008A   18113.78793105  .00000068  00000-0  00000+0 0  9991
2 36411   0.1251 104.8288 0000460  74.5109 180.6564  1.00267869 29845
GOES 16 [+]             
1 41866U 16071A   18113.62107755 -.00000271  00000-0  00000+0 0  9997
2 41866   0.0033 237.6523 0001060 167.1035 315.2528  1.00269302  5263
